[{"OBJECT_NAME":"TANSAT","OBJECT_ID":"2016-081A","EPOCH":"2026-03-10T00:08:31.483680","MEAN_MOTION":14.59869105,"ECCENTRICITY":0.00193016,"INCLINATION":98.5363,"RA_OF_ASC_NODE":66.3451,"ARG_OF_PERICENTER":255.2453,"MEAN_ANOMALY":104.6607,"EPHEMERIS_TYPE":0,"CLASSIFICATION_TYPE":"U","NORAD_CAT_ID":41898,"ELEMENT_SET_NO":999,"REV_AT_EPOCH":49015,"BSTAR":6.4461742e-5,"MEAN_MOTION_DOT":2.58e-6,"MEAN_MOTION_DDOT":0},{"OBJECT_NAME":"YIJIAN","OBJECT_ID":"2016-081B","EPOCH":"2026-03-09T22:34:34.332960","MEAN_MOTION":14.60631013,"ECCENTRICITY":0.00197345,"INCLINATION":98.5358,"RA_OF_ASC_NODE":63.7876,"ARG_OF_PERICENTER":255.3426,"MEAN_ANOMALY":104.5586,"EPHEMERIS_TYPE":0,"CLASSIFICATION_TYPE":"U","NORAD_CAT_ID":41899,"ELEMENT_SET_NO":999,"REV_AT_EPOCH":49010,"BSTAR":0.00020669629,"MEAN_MOTION_DOT":9.57e-6,"MEAN_MOTION_DDOT":0}]
